{
  "type": "FeatureCollection",
  "features": [
    {
      "type": "Feature",
      "properties": {
        "norad_id": 43823,
        "name": "GEO-KOMPSAT-2A",
        "group": "weather",
        "lat": 0.031899431848214956,
        "lon": 144.570797801288,
        "alt_km": 35785.35478757013,
        "timestamp": "2025-12-22T18:58:53.063224+00:00",
        "meta_object_name": "GEO-KOMPSAT-2A",
        "meta_object_id": "2018-100A",
        "meta_epoch": "2025-12-22T00:04:46.593120",
        "meta_mean_motion": 1.00270405,
        "meta_eccentricity": 3.891e-05,
        "meta_inclination": 0.0515,
        "meta_ra_of_asc_node": 130.0014,
        "meta_arg_of_pericenter": 332.6805,
        "meta_mean_anomaly": 117.594,
        "meta_ephemeris_type": 0,
        "meta_classification_type": "U",
        "meta_norad_cat_id": 43823,
        "meta_element_set_no": 999,
        "meta_rev_at_epoch": 2585,
        "meta_bstar": 0,
        "meta_mean_motion_dot": -3.22e-06,
        "meta_mean_motion_ddot": 0,
        "tle_line1": "1 43823U 18100A   25356.00331705 -.00000322  00000+0  00000+0 0  9996",
        "tle_line2": "2 43823   0.0515 130.0014 0000389 332.6805 117.5940  1.00270405 25855"
      },
      "geometry": {
        "type": "Point",
        "coordinates": [
          144.570797801288,
          0.031899431848214956
        ]
      }
    },
    {
      "type": "Feature",
      "properties": {
        "norad_id": 44387,
        "name": "METEOR-M2 2",
        "group": "weather",
        "lat": 42.133090927256234,
        "lon": -31.50401381951655,
        "alt_km": 807.2632240103094,
        "timestamp": "2025-12-22T18:58:53.063242+00:00",
        "meta_object_name": "METEOR-M2 2",
        "meta_object_id": "2019-038A",
        "meta_epoch": "2025-12-22T05:17:36.002976",
        "meta_mean_motion": 14.24295964,
        "meta_eccentricity": 0.0001667,
        "meta_inclination": 98.8974,
        "meta_ra_of_asc_node": 336.0654,
        "meta_arg_of_pericenter": 128.9824,
        "meta_mean_anomaly": 231.1503,
        "meta_ephemeris_type": 0,
        "meta_classification_type": "U",
        "meta_norad_cat_id": 44387,
        "meta_element_set_no": 999,
        "meta_rev_at_epoch": 33610,
        "meta_bstar": 0.00018233853,
        "meta_mean_motion_dot": 3.75e-06,
        "meta_mean_motion_ddot": 0,
        "tle_line1": "1 44387U 19038A   25356.22055559  .00000375  00000+0  18234-3 0  9996",
        "tle_line2": "2 44387  98.8974 336.0654 0001667 128.9824 231.1503 14.24295964336108"
      },
      "geometry": {
        "type": "Point",
        "coordinates": [
          -31.50401381951655,
          42.133090927256234
        ]
      }
    },
    {
      "type": "Feature",
      "properties": {
        "norad_id": 47719,
        "name": "ARKTIKA-M 1",
        "group": "weather",
        "lat": 63.09985033747438,
        "lon": 177.74247128177907,
        "alt_km": 39114.71271954655,
        "timestamp": "2025-12-22T18:58:53.063264+00:00",
        "meta_object_name": "ARKTIKA-M 1",
        "meta_object_id": "2021-016A",
        "meta_epoch": "2025-12-22T01:06:25.193952",
        "meta_mean_motion": 2.00630804,
        "meta_eccentricity": 0.72089477,
        "meta_inclination": 63.1758,
        "meta_ra_of_asc_node": 82.7279,
        "meta_arg_of_pericenter": 269.1606,
        "meta_mean_anomaly": 15.5458,
        "meta_ephemeris_type": 0,
        "meta_classification_type": "U",
        "meta_norad_cat_id": 47719,
        "meta_element_set_no": 999,
        "meta_rev_at_epoch": 3523,
        "meta_bstar": 0,
        "meta_mean_motion_dot": -8.3e-07,
        "meta_mean_motion_ddot": 0,
        "tle_line1": "1 47719U 21016A   25356.04612493 -.00000083  00000+0  00000+0 0  9998",
        "tle_line2": "2 47719  63.1758  82.7279 7208947 269.1606  15.5458  2.00630804 35236"
      },
      "geometry": {
        "type": "Point",
        "coordinates": [
          177.74247128177907,
          63.09985033747438
        ]
      }
    },
    {
      "type": "Feature",
      "properties": {
        "norad_id": 49008,
        "name": "FENGYUN 3E",
        "group": "weather",
        "lat": -22.38650140810972,
        "lon": 173.55680909010258,
        "alt_km": 830.4775576493084,
        "timestamp": "2025-12-22T18:58:53.063282+00:00",
        "meta_object_name": "FENGYUN 3E",
        "meta_object_id": "2021-062A",
        "meta_epoch": "2025-12-22T06:11:30.316992",
        "meta_mean_motion": 14.19882231,
        "meta_eccentricity": 8.246e-05,
        "meta_inclination": 98.7469,
        "meta_ra_of_asc_node": 356.6661,
        "meta_arg_of_pericenter": 200.7489,
        "meta_mean_anomaly": 159.3654,
        "meta_ephemeris_type": 0,
        "meta_classification_type": "U",
        "meta_norad_cat_id": 49008,
        "meta_element_set_no": 999,
        "meta_rev_at_epoch": 23147,
        "meta_bstar": 0.00014083926,
        "meta_mean_motion_dot": 2.55e-06,
        "meta_mean_motion_ddot": 0,
        "tle_line1": "1 49008U 21062A   25356.25798978  .00000255  00000+0  14084-3 0  9999",
        "tle_line2": "2 49008  98.7469 356.6661 0000824 200.7489 159.3654 14.19882231231472"
      },
      "geometry": {
        "type": "Point",
        "coordinates": [
          173.55680909010258,
          -22.38650140810972
        ]
      }
    },
    {
      "type": "Feature",
      "properties": {
        "norad_id": 51850,
        "name": "GOES 18",
        "group": "weather",
        "lat": 0.006614057065477502,
        "lon": -120.69736812508681,
        "alt_km": 35786.371282169566,
        "timestamp": "2025-12-22T18:58:53.063300+00:00",
        "meta_object_name": "GOES 18",
        "meta_object_id": "2022-021A",
        "meta_epoch": "2025-12-22T05:40:50.816064",
        "meta_mean_motion": 1.00270554,
        "meta_eccentricity": 3.066e-05,
        "meta_inclination": 0.0173,
        "meta_ra_of_asc_node": 189.5676,
        "meta_arg_of_pericenter": 139.9715,
        "meta_mean_anomaly": 69.7207,
        "meta_ephemeris_type": 0,
        "meta_classification_type": "U",
        "meta_norad_cat_id": 51850,
        "meta_element_set_no": 999,
        "meta_rev_at_epoch": 481,
        "meta_bstar": 0,
        "meta_mean_motion_dot": 1.19e-06,
        "meta_mean_motion_ddot": 0,
        "tle_line1": "1 51850U 22021A   25356.23669926  .00000119  00000+0  00000+0 0  9999",
        "tle_line2": "2 51850   0.0173 189.5676 0000306 139.9715  69.7207  1.00270554  4816"
      },
      "geometry": {
        "type": "Point",
        "coordinates": [
          -120.69736812508681,
          0.006614057065477502
        ]
      }
    },
    {
      "type": "Feature",
      "properties": {
        "norad_id": 54234,
        "name": "NOAA 21 (JPSS-2)",
        "group": "weather",
        "lat": -16.043524814659232,
        "lon": 110.43653566390996,
        "alt_km": 832.9944140045482,
        "timestamp": "2025-12-22T18:58:53.063318+00:00",
        "meta_object_name": "NOAA 21 (JPSS-2)",
        "meta_object_id": "2022-150A",
        "meta_epoch": "2025-12-22T06:13:07.736448",
        "meta_mean_motion": 14.19526634,
        "meta_eccentricity": 0.00017951,
        "meta_inclination": 98.7476,
        "meta_ra_of_asc_node": 292.4491,
        "meta_arg_of_pericenter": 18.9421,
        "meta_mean_anomaly": 341.1822,
        "meta_ephemeris_type": 0,
        "meta_classification_type": "U",
        "meta_norad_cat_id": 54234,
        "meta_element_set_no": 999,
        "meta_rev_at_epoch": 16144,
        "meta_bstar": 5.1250179e-05,
        "meta_mean_motion_dot": 6.4e-07,
        "meta_mean_motion_ddot": 0,
        "tle_line1": "1 54234U 22150A   25356.25911732  .00000064  00000+0  51250-4 0  9995",
        "tle_line2": "2 54234  98.7476 292.4491 0001795  18.9421 341.1822 14.19526634161447"
      },
      "geometry": {
        "type": "Point",
        "coordinates": [
          110.43653566390996,
          -16.043524814659232
        ]
      }
    },
    {
      "type": "Feature",
      "properties": {
        "norad_id": 54743,
        "name": "METEOSAT-12 (MTG-I1)",
        "group": "weather",
        "lat": -0.10738806510264919,
        "lon": 16.005976982148002,
        "alt_km": 35788.679542524114,
        "timestamp": "2025-12-22T18:58:53.063336+00:00",
        "meta_object_name": "METEOSAT-12 (MTG-I1)",
        "meta_object_id": "2022-170C",
        "meta_epoch": "2025-12-22T06:18:54.979776",
        "meta_mean_motion": 1.00270732,
        "meta_eccentricity": 0.00015211,
        "meta_inclination": 0.6966,
        "meta_ra_of_asc_node": 25.1701,
        "meta_arg_of_pericenter": 239.7344,
        "meta_mean_anomaly": 280.5813,
        "meta_ephemeris_type": 0,
        "meta_classification_type": "U",
        "meta_norad_cat_id": 54743,
        "meta_element_set_no": 999,
        "meta_rev_at_epoch": 1120,
        "meta_bstar": 0,
        "meta_mean_motion_dot": 1.4e-07,
        "meta_mean_motion_ddot": 0,
        "tle_line1": "1 54743U 22170C   25356.26313634  .00000014  00000+0  00000+0 0  9997",
        "tle_line2": "2 54743   0.6966  25.1701 0001521 239.7344 280.5813  1.00270732 11202"
      },
      "geometry": {
        "type": "Point",
        "coordinates": [
          16.005976982148002,
          -0.10738806510264919
        ]
      }
    }
  ]
}